CZ-3B R/B               
1 56565U 23066B   23151.92747555  .00065822  35787-6  19654-2 0  9996
2 56565  28.3502 268.2648 7220317 188.5157 144.4197  2.40095605   362
STARLINK-30122          
1 56688U 23067A   23153.50001157 -.01614238  00000+0 -14198-1 0  9994
2 56688  43.0010  22.1025 0001846 255.7079 220.7275 15.70785096  2543
STARLINK-30129          
1 56689U 23067B   23153.50001157 -.01613338  00000+0 -14179-1 0  9994
2 56689  43.0011  22.1016 0001915 255.8331 220.8390 15.70801099  2545
STARLINK-30124          
1 56690U 23067C   23153.50001157 -.01614889  00000+0 -14187-1 0  9997
2 56690  43.0011  22.1011 0001776 255.2797 221.7018 15.70814829  2549
STARLINK-30087          
1 56691U 23067D   23153.50001157 -.01615136  00000+0 -14184-1 0  9991
2 56691  43.0012  22.0995 0001602 257.6497 219.6768 15.70825737  2540
STARLINK-30036          
1 56692U 23067E   23153.58334491 -.01627941  00000+0 -14472-1 0  9997
2 56692  43.0010  21.5977 0002007 248.8149 340.5436 15.70557182  2563
STARLINK-30067          
1 56693U 23067F   23153.50001157 -.01608616  00000+0 -14093-1 0  9997
2 56693  43.0012  22.0986 0002128 257.6398 220.5604 15.70864264  2544
STARLINK-30126          
1 56694U 23067G   23153.50001157 -.01614964  00000+0 -14163-1 0  9999
2 56694  43.0011  22.0984 0001711 250.6724 227.1909 15.70856626  2549
STARLINK-30121          
1 56695U 23067H   23153.50001157 -.01623080  00000+0 -14229-1 0  9992
2 56695  43.0012  22.0972 0001177 262.7559 215.7413 15.70885755  2542
STARLINK-30118          
1 56696U 23067J   23153.08798894  .00216778  25208-4  70841-3 0  9992
2 56696  43.0029  23.5462 0007647 289.1649  70.8397 15.89878767  2212
STARLINK-30130          
1 56697U 23067K   23153.16667824  .00431662  00000+0  30921-2 0  9993
2 56697  43.0015  24.1024 0002897 266.9278 126.7215 15.71626619  2490
STARLINK-30068          
1 56698U 23067L   23153.16667824  .00171360  00000+0  12848-2 0  9998
2 56698  43.0018  24.1093 0002156 268.8647 122.1107 15.71330599  2498
STARLINK-30127          
1 56699U 23067M   23153.50001157 -.01617445  00000+0 -14169-1 0  9997
2 56699  43.0013  22.0966 0001564 265.5490 213.3651 15.70888953  2546
STARLINK-30053          
1 56700U 23067N   23153.50001157 -.01607541  00000+0 -14069-1 0  9995
2 56700  43.0013  22.0951 0002217 256.6381 222.8517 15.70885673  2541
STARLINK-30125          
1 56701U 23067P   23153.50001157 -.01603968  00000+0 -14027-1 0  9999
2 56701  43.0015  22.0950 0002311 257.7182 222.0849 15.70896021  2548
STARLINK-30117          
1 56702U 23067Q   23153.50001157 -.01609182  00000+0 -14069-1 0  9990
2 56702  43.0013  22.0945 0002017 255.5717 224.4917 15.70914955  2543
STARLINK-30132          
1 56703U 23067R   23153.50001157 -.01608517  00000+0 -14055-1 0  9997
2 56703  43.0015  22.0935 0001953 253.5102 226.8395 15.70928154  2541
STARLINK-30066          
1 56704U 23067S   23153.50001157 -.01610558  00000+0 -14025-1 0  9993
2 56704  43.0015  22.0881 0002095 262.9580 219.2203 15.71010414  2540
STARLINK-30080          
1 56705U 23067T   23153.50001157 -.00565371  00000+0 -39015-2 0  9992
2 56705  43.0019  21.8953 0001660 260.0761 299.8343 15.75202171  2556
STARLINK-30079          
1 56706U 23067U   23153.50001157 -.01618832  00000+0 -14148-1 0  9994
2 56706  43.0015  22.0905 0001384 265.9024 215.3830 15.70948479  2548
STARLINK-30070          
1 56707U 23067V   23153.50001157 -.01606896  00000+0 -14040-1 0  9993
2 56707  43.0014  22.0916 0002160 257.8566 223.1535 15.70924256  2540
STARLINK-30071          
1 56708U 23067W   23153.50001157 -.01613717  00000+0 -14068-1 0  9994
2 56708  43.0016  22.0890 0001976 264.6264 217.2567 15.70991652  2542
STARLINK-30085          
1 56709U 23067X   23153.50001157 -.01555640  00000+0 -13564-1 0  9995
2 56709  43.0016  22.0895 0001774 263.5876 218.0342 15.70883464  2542
ONEWEB-0561             
1 56710U 23068A   23153.44717422 -.00129901  00000+0 -22952-1 0  9997
2 56710  86.7894 135.0463 0012763 168.3597 191.7916 14.68319216  2741
ONEWEB-0668             
1 56711U 23068B   23153.07306206  .00001635  00000+0  19454-3 0  9997
2 56711  86.6785 135.1242 0015275 172.1368 188.0098 14.83661408  2690
ONEWEB-0676             
1 56712U 23068C   23153.07457573  .00001746  00000+0  20890-3 0  9991
2 56712  86.6747 135.1177 0014983 172.0199 188.1266 14.83480300  2690
ONEWEB-0677             
1 56713U 23068D   23153.50001157 -.01163508  00000+0 -21814+0 0  9994
2 56713  86.7681 135.0134 0010764 163.5961 111.3739 14.68235486  2752
ONEWEB-0678             
1 56714U 23068E   23153.08111519  .00001616  00000+0  19692-3 0  9995
2 56714  86.6768 135.1232 0011226 169.2938 190.8526 14.82700540  2692
ONEWEB-0679             
1 56715U 23068F   23153.07265336  .00001761  00000+0  20951-3 0  9993
2 56715  86.6785 135.1238 0015531 171.7672 188.3810 14.83709600  2699
ONEWEB-0680             
1 56716U 23068G   23153.07485427  .00001639  00000+0  19602-3 0  9994
2 56716  86.6750 135.1186 0014436 173.1929 186.9493 14.83446307  2691
ONEWEB-0681             
1 56717U 23068H   23153.07879003  .00001343  00000+0  16201-3 0  9996
2 56717  86.6769 135.1244 0012063 173.6288 186.5091 14.82987000  2693
ONEWEB-0682             
1 56718U 23068J   23153.07916416  .00001635  00000+0  19814-3 0  9994
2 56718  86.6770 135.1262 0011894 173.3456 186.7927 14.82931320  2695
ONEWEB-0683             
1 56719U 23068K   23153.07983121  .00001659  00000+0  20155-3 0  9998
2 56719  86.6767 135.1265 0011656 172.1734 187.9674 14.82854176  2692
ONEWEB-0684             
1 56720U 23068L   23153.08073769  .00001646  00000+0  20049-3 0  9997
2 56720  86.6770 135.1231 0011340 169.9718 190.1734 14.82747934  2693
ONEWEB-0686             
1 56721U 23068M   23153.07354995  .00001680  00000+0  20023-3 0  9990
2 56721  86.6747 135.1169 0015094 172.3698 187.7758 14.83601667  2694
ONEWEB-0694             
1 56722U 23068N   23153.07394841  .00001819  00000+0  21732-3 0  9997
2 56722  86.6788 135.1254 0014851 171.9232 188.2234 14.83552466  2691
ONEWEB-0696             
1 56723U 23068P   23153.08046284  .00001633  00000+0  19864-3 0  9991
2 56723  86.6766 135.1271 0011453 170.6744 189.4694 14.82776697  2692
ONEWEB-0703             
1 56724U 23068Q   23153.08015534  .00001127  00000+0  13598-3 0  9992
2 56724  86.6771 135.1229 0011568 171.5362 188.6058 14.82810059  2691
ONEWEB-0721             
1 56725U 23068R   23153.08152477  .00001693  00000+0  20673-3 0  9991
2 56725  86.6767 135.1236 0011121 168.8364 191.3108 14.82653161  2697
IRIDIUM 181             
1 56726U 23068S   23153.43232837  .00001821  00000+0  23562-3 0  9993
2 56726  86.6741 134.9922 0002367 126.2387 233.9054 14.80343607  2056
IRIDIUM 177             
1 56727U 23068T   23153.42642719  .00001800  00000+0  23283-3 0  9994
2 56727  86.6747 134.9859 0002187 111.9069 248.2386 14.80335328  2058
IRIDIUM 174             
1 56728U 23068U   23153.42362108  .00001848  00000+0  23427-3 0  9998
2 56728  86.6801 134.9935 0005091 152.9154 207.2335 14.81189428  2050
IRIDIUM 178             
1 56729U 23068V   23152.53612463  .00001454  00000+0  18791-3 0  9993
2 56729  86.6745 135.3438 0001795  99.3883 260.7542 14.80240137  1924
IRIDIUM 179             
1 56730U 23068W   23152.46515108  .00001589  00000+0  18850-3 0  9990
2 56730  86.6785 135.3763 0015566 172.3049 187.8416 14.83762908  1914
2023-069A               
1 56731U 23069A   23153.45861715  .00007694  00000+0  26075-3 0  9991
2 56731  41.0054 289.6575 0032178 222.9931 136.8374 15.30237624  1858
2023-069B               
1 56732U 23069B   23153.45538632  .00021267  00000+0  69513-3 0  9997
2 56732  41.0053 289.6325 0030594 222.5289 137.3160 15.30772668  1854
2023-069C               
1 56733U 23069C   23153.45410675  .00011000  00000+0  36307-3 0  9993
2 56733  41.0056 289.6221 0029924 223.0482 136.7997 15.30851135  1857
CZ-2C R/B               
1 56734U 23069D   23152.81564037  .00026653  00000+0  49801-3 0  9998
2 56734  41.1978 291.9946 0053023 120.7442 239.8624 15.46576354  1775
CZ-2C DEB               
1 56735U 23069E   23152.85745154  .00046523  00000+0  31621-2 0  9992
2 56735  41.1425 297.1206 0211619 204.1291 154.9485 14.89172322  1726
CZ-2C DEB               
1 56736U 23069F   23152.83977783  .00065265  00000+0  26060-2 0  9991
2 56736  40.8556 294.8137 0121478 247.4150 111.3772 15.17630619  1751
CZ-2C DEB               
1 56737U 23069G   23152.81364380  .00087608  00000+0  31581-2 0  9992
2 56737  41.0990 294.2861 0117053 254.8905 103.8939 15.21228692  1715
2023-069H               
1 56738U 23069H   23153.44815332  .00046308  00000+0  30837-2 0  9996
2 56738  40.9054 294.0353 0204114 206.4648 152.5614 14.90886077  1815
PROGRESS-MS 23          
1 56740U 23071A   23152.53207560  .00019373  00000+0  34197-3 0  9995
2 56740  51.6408  46.1443 0005313  43.6327  17.4443 15.50373310399368
2023-072A               
1 56743U 23072A   23153.46884556  .00004410  00000+0  29739-3 0  9990
2 56743  97.5422 340.6325 0007291 270.4368  89.6024 15.07135867  1214
SNIPE 4                 
1 56744U 23072B   23153.46862068  .00005658  00000+0  37982-3 0  9999
2 56744  97.5508 340.6422 0007322 271.2935  88.7454 15.07184525  1214
SNIPE 2                 
1 56745U 23072C   23153.46793747  .00006161  00000+0  41168-3 0  9998
2 56745  97.5517 340.6437 0007611 275.0336  85.0023 15.07318647  1215
2023-072D               
1 56746U 23072D   23153.46717379  .00006789  00000+0  45137-3 0  9992
2 56746  97.5519 340.6445 0007959 278.5979  81.4347 15.07467667  1219
2023-072E               
1 56747U 23072E   23153.46637116  .00006340  00000+0  42015-3 0  9998
2 56747  97.5521 340.6452 0008470 281.6027  78.4250 15.07614155  1214
2023-072F               
1 56748U 23072F   23153.46609143  .00005291  00000+0  35085-3 0  9991
2 56748  97.5314 340.6256 0008752 282.2101  77.8146 15.07658467  1211
